FENGYUN 1C DEB          
1 36677U 99025DYX 17345.38495434  .00000468  00000-0  29697-3 0  9998
2 36677  98.9945  34.7915 0064652 212.4545 204.5537 14.07860564494565
